{"type": "FeatureCollection", "features": [ {"type": "Feature", "properties": {"norad_id": 66859, "name": "STARLINK-35646", "group": "last-30-days", "lat": -38.8912585799778, "lon": -62.184768539987424, "alt_km": 382.49533497856646, "timestamp": "2025-12-23T07:45:08.117221+00:00", "meta": {"OBJECT_NAME": "STARLINK-35646", "OBJECT_ID": "2025-281M", "EPOCH": "2025-12-22T22:00:03.000096", "MEAN_MOTION": 15.64395216, "ECCENTRICITY": 0.00011746, "INCLINATION": 43.0005, "RA_OF_ASC_NODE": 60.2837, "ARG_OF_PERICENTER": 283.2095, "MEAN_ANOMALY": 194.1328, "EPHEMERIS_TYPE": 0, "CLASSIFICATION_TYPE": "U", "NORAD_CAT_ID": 66859, "ELEMENT_SET_NO": 999, "REV_AT_EPOCH": 302, "BSTAR": -0.023420959, "MEAN_MOTION_DOT": -0.02027011, "MEAN_MOTION_DDOT": 0}, "tle": {"line1": "1 66859U 25281M   25356.91670139 -.02027011  00000+0 -23421-1 0  9996", "line2": "2 66859  43.0005  60.2837 0001174 283.2095 194.1328 15.64395216  3021"}}, "geometry": {"type": "Point", "coordinates": [-62.184768539987424, -38.8912585799778]}}, {"type": "Feature", "properties": {"norad_id": 66860, "name": "STARLINK-35987", "group": "last-30-days", "lat": -41.55119398598086, "lon": -50.15075143068781, "alt_km": 382.5208055660032, "timestamp": "2025-12-23T07:45:08.117231+00:00", "meta": {"OBJECT_NAME": "STARLINK-35987", "OBJECT_ID": "2025-281N", "EPOCH": "2025-12-22T22:00:03.000096", "MEAN_MOTION": 15.64391684, "ECCENTRICITY": 0.00011513, "INCLINATION": 43.0007, "RA_OF_ASC_NODE": 60.26, "ARG_OF_PERICENTER": 282.2079, "MEAN_ANOMALY": 204.7247, "EPHEMERIS_TYPE": 0, "CLASSIFICATION_TYPE": "U", "NORAD_CAT_ID": 66860, "ELEMENT_SET_NO": 999, "REV_AT_EPOCH": 302, "BSTAR": -0.023416932, "MEAN_MOTION_DOT": -0.02026436, "MEAN_MOTION_DDOT": 0}, "tle": {"line1": "1 66860U 25281N   25356.91670139 -.02026436  00000+0 -23417-1 0  9993", "line2": "2 66860  43.0007  60.2600 0001151 282.2079 204.7247 15.64391684  3022"}}, "geometry": {"type": "Point", "coordinates": [-50.15075143068781, -41.55119398598086]}}, {"type": "Feature", "properties": {"norad_id": 66861, "name": "STARLINK-35991", "group": "last-30-days", "lat": -40.104569832811414, "lon": -57.48431685581981, "alt_km": 382.45180409182194, "timestamp": "2025-12-23T07:45:08.117241+00:00", "meta": {"OBJECT_NAME": "STARLINK-35991", "OBJECT_ID": "2025-281P", "EPOCH": "2025-12-22T22:00:03.000096", "MEAN_MOTION": 15.64392351, "ECCENTRICITY": 0.00012223, "INCLINATION": 43, "RA_OF_ASC_NODE": 60.2747, "ARG_OF_PERICENTER": 280.6286, "MEAN_ANOMALY": 200.5519, "EPHEMERIS_TYPE": 0, "CLASSIFICATION_TYPE": "U", "NORAD_CAT_ID": 66861, "ELEMENT_SET_NO": 999, "REV_AT_EPOCH": 302, "BSTAR": -0.023408567, "MEAN_MOTION_DOT": -0.02025905, "MEAN_MOTION_DDOT": 0}, "tle": {"line1": "1 66861U 25281P   25356.91670139 -.02025905  00000+0 -23409-1 0  9995", "line2": "2 66861  43.0000  60.2747 0001222 280.6286 200.5519 15.64392351  3027"}}, "geometry": {"type": "Point", "coordinates": [-57.48431685581981, -40.104569832811414]}}, {"type": "Feature", "properties": {"norad_id": 66862, "name": "STARLINK-35974", "group": "last-30-days", "lat": -39.52151132995755, "lon": -59.85601508342905, "alt_km": 382.5385675806474, "timestamp": "2025-12-23T07:45:08.117251+00:00", "meta": {"OBJECT_NAME": "STARLINK-35974", "OBJECT_ID": "2025-281Q", "EPOCH": "2025-12-22T22:00:03.000096", "MEAN_MOTION": 15.64391147, "ECCENTRICITY": 0.00011383, "INCLINATION": 43.0003, "RA_OF_ASC_NODE": 60.2791, "ARG_OF_PERICENTER": 284.0927, "MEAN_ANOMALY": 195.171, "EPHEMERIS_TYPE": 0, "CLASSIFICATION_TYPE": "U", "NORAD_CAT_ID": 66862, "ELEMENT_SET_NO": 999, "REV_AT_EPOCH": 292, "BSTAR": -0.023397323, "MEAN_MOTION_DOT": -0.02024902, "MEAN_MOTION_DDOT": 0}, "tle": {"line1": "1 66862U 25281Q   25356.91670139 -.02024902  00000+0 -23397-1 0  9998", "line2": "2 66862  43.0003  60.2791 0001138 284.0927 195.1710 15.64391147  2928"}}, "geometry": {"type": "Point", "coordinates": [-59.85601508342905, -39.52151132995755]}}, {"type": "Feature", "properties": {"norad_id": 66863, "name": "STARLINK-36134", "group": "last-30-days", "lat": -40.638614830035, "lon": -55.07600885690737, "alt_km": 382.5134845256016, "timestamp": "2025-12-23T07:45:08.117261+00:00", "meta": {"OBJECT_NAME": "STARLINK-36134", "OBJECT_ID": "2025-281R", "EPOCH": "2025-12-22T22:00:03.000096", "MEAN_MOTION": 15.64395719, "ECCENTRICITY": 0.00011789, "INCLINATION": 43.0006, "RA_OF_ASC_NODE": 60.2701, "ARG_OF_PERICENTER": 282.773, "MEAN_ANOMALY": 200.3244, "EPHEMERIS_TYPE": 0, "CLASSIFICATION_TYPE": "U", "NORAD_CAT_ID": 66863, "ELEMENT_SET_NO": 999, "REV_AT_EPOCH": 302, "BSTAR": -0.023490609, "MEAN_MOTION_DOT": -0.02032325, "MEAN_MOTION_DDOT": 0}, "tle": {"line1": "1 66863U 25281R   25356.91670139 -.02032325  00000+0 -23491-1 0  9992", "line2": "2 66863  43.0006  60.2701 0001178 282.7730 200.3244 15.64395719  3026"}}, "geometry": {"type": "Point", "coordinates": [-55.07600885690737, -40.638614830035]}}, {"type": "Feature", "properties": {"norad_id": 66864, "name": "STARLINK-36070", "group": "last-30-days", "lat": -41.120875855101396, "lon": -52.63223147846925, "alt_km": 382.526675327671, "timestamp": "2025-12-23T07:45:08.117270+00:00", "meta": {"OBJECT_NAME": "STARLINK-36070", "OBJECT_ID": "2025-281S", "EPOCH": "2025-12-22T22:00:03.000096", "MEAN_MOTION": 15.64390391, "ECCENTRICITY": 0.00011425, "INCLINATION": 43.0005, "RA_OF_ASC_NODE": 60.2645, "ARG_OF_PERICENTER": 283.0457, "MEAN_ANOMALY": 201.9678, "EPHEMERIS_TYPE": 0, "CLASSIFICATION_TYPE": "U", "NORAD_CAT_ID": 66864, "ELEMENT_SET_NO": 999, "REV_AT_EPOCH": 305, "BSTAR": -0.023359713, "MEAN_MOTION_DOT": -0.02022001, "MEAN_MOTION_DDOT": 0}, "tle": {"line1": "1 66864U 25281S   25356.91670139 -.02022001  00000+0 -23360-1 0  9998", "line2": "2 66864  43.0005  60.2645 0001142 283.0457 201.9678 15.64390391  3056"}}, "geometry": {"type": "Point", "coordinates": [-52.63223147846925, -41.120875855101396]}}, {"type": "Feature", "properties": {"norad_id": 66865, "name": "STARLINK-36117", "group": "last-30-days", "lat": -41.92670131917896, "lon": -47.64070902484383, "alt_km": 382.50970444950144, "timestamp": "2025-12-23T07:45:08.117282+00:00", "meta": {"OBJECT_NAME": "STARLINK-36117", "OBJECT_ID": "2025-281T", "EPOCH": "2025-12-22T22:00:03.000096", "MEAN_MOTION": 15.64392967, "ECCENTRICITY": 0.00011872, "INCLINATION": 43.0007, "RA_OF_ASC_NODE": 60.2557, "ARG_OF_PERICENTER": 283.5966, "MEAN_ANOMALY": 205.251, "EPHEMERIS_TYPE": 0, "CLASSIFICATION_TYPE": "U", "NORAD_CAT_ID": 66865, "ELEMENT_SET_NO": 999, "REV_AT_EPOCH": 302, "BSTAR": -0.023422907, "MEAN_MOTION_DOT": -0.02027008, "MEAN_MOTION_DDOT": 0}, "tle": {"line1": "1 66865U 25281T   25356.91670139 -.02027008  00000+0 -23423-1 0  9991", "line2": "2 66865  43.0007  60.2557 0001187 283.5966 205.2510 15.64392967  3020"}}, "geometry": {"type": "Point", "coordinates": [-47.64070902484383, -41.92670131917896]}}, {"type": "Feature", "properties": {"norad_id": 66866, "name": "STARLINK-36126", "group": "last-30-days", "lat": -42.24676434053012, "lon": -45.102658555848514, "alt_km": 382.48483520341506, "timestamp": "2025-12-23T07:45:08.117292+00:00", "meta": {"OBJECT_NAME": "STARLINK-36126", "OBJECT_ID": "2025-281U", "EPOCH": "2025-12-22T22:00:03.000096", "MEAN_MOTION": 15.64390927, "ECCENTRICITY": 0.00012204, "INCLINATION": 43.0005, "RA_OF_ASC_NODE": 60.2499, "ARG_OF_PERICENTER": 283.7439, "MEAN_ANOMALY": 207.0218, "EPHEMERIS_TYPE": 0, "CLASSIFICATION_TYPE": "U", "NORAD_CAT_ID": 66866, "ELEMENT_SET_NO": 999, "REV_AT_EPOCH": 305, "BSTAR": -0.02338319, "MEAN_MOTION_DOT": -0.02023878, "MEAN_MOTION_DDOT": 0}, "tle": {"line1": "1 66866U 25281U   25356.91670139 -.02023878  00000+0 -23383-1 0  9998", "line2": "2 66866  43.0005  60.2499 0001220 283.7439 207.0218 15.64390927  3051"}}, "geometry": {"type": "Point", "coordinates": [-45.102658555848514, -42.24676434053012]}}, {"type": "Feature", "properties": {"norad_id": 66867, "name": "STARLINK-36101", "group": "last-30-days", "lat": -42.510085389063015, "lon": -42.53936916459929, "alt_km": 382.61943270240135, "timestamp": "2025-12-23T07:45:08.117302+00:00", "meta": {"OBJECT_NAME": "STARLINK-36101", "OBJECT_ID": "2025-281V", "EPOCH": "2025-12-22T22:00:03.000096", "MEAN_MOTION": 15.64387897, "ECCENTRICITY": 0.00010202, "INCLINATION": 43.0003, "RA_OF_ASC_NODE": 60.2456, "ARG_OF_PERICENTER": 285.1758, "MEAN_ANOMALY": 207.5096, "EPHEMERIS_TYPE": 0, "CLASSIFICATION_TYPE": "U", "NORAD_CAT_ID": 66867, "ELEMENT_SET_NO": 999, "REV_AT_EPOCH": 286, "BSTAR": -0.023361542, "MEAN_MOTION_DOT": -0.0202187, "MEAN_MOTION_DDOT": 0}, "tle": {"line1": "1 66867U 25281V   25356.91670139 -.02021870  00000+0 -23362-1 0  9996", "line2": "2 66867  43.0003  60.2456 0001020 285.1758 207.5096 15.64387897  2860"}}, "geometry": {"type": "Point", "coordinates": [-42.53936916459929, -42.510085389063015]}}, {"type": "Feature", "properties": {"norad_id": 66868, "name": "STARLINK-36108", "group": "last-30-days", "lat": -42.71577973998493, "lon": -39.95712266227473, "alt_km": 382.508371164261, "timestamp": "2025-12-23T07:45:08.117314+00:00", "meta": {"OBJECT_NAME": "STARLINK-36108", "OBJECT_ID": "2025-281W", "EPOCH": "2025-12-22T22:00:03.000096", "MEAN_MOTION": 15.64394393, "ECCENTRICITY": 0.00011642, "INCLINATION": 43.0002, "RA_OF_ASC_NODE": 60.2404, "ARG_OF_PERICENTER": 282.9417, "MEAN_ANOMALY": 211.6578, "EPHEMERIS_TYPE": 0, "CLASSIFICATION_TYPE": "U", "NORAD_CAT_ID": 66868, "ELEMENT_SET_NO": 999, "REV_AT_EPOCH": 286, "BSTAR": -0.023459745, "MEAN_MOTION_DOT": -0.02029883, "MEAN_MOTION_DDOT": 0}, "tle": {"line1": "1 66868U 25281W   25356.91670139 -.02029883  00000+0 -23460-1 0  9998", "line2": "2 66868  43.0002  60.2404 0001164 282.9417 211.6578 15.64394393  2869"}}, "geometry": {"type": "Point", "coordinates": [-39.95712266227473, -42.71577973998493]}}]}